{"type": "FeatureCollection", "features": [ {"type": "Feature", "properties": {"norad_id": 54234, "name": "NOAA 21 (JPSS-2)", "group": "weather", "lat": 32.69253800596192, "lon": 108.68055599955568, "alt_km": 825.4683382184676, "timestamp": "2025-12-12T16:50:32.790577+00:00", "meta": {"OBJECT_NAME": "NOAA 21 (JPSS-2)", "OBJECT_ID": "2022-150A", "EPOCH": "2025-12-12T06:00:12.605760", "MEAN_MOTION": 14.19524122, "ECCENTRICITY": 0.0002238, "INCLINATION": 98.7461, "RA_OF_ASC_NODE": 282.5645, "ARG_OF_PERICENTER": 39.0881, "MEAN_ANOMALY": 321.0456, "EPHEMERIS_TYPE": 0, "CLASSIFICATION_TYPE": "U", "NORAD_CAT_ID": 54234, "ELEMENT_SET_NO": 999, "REV_AT_EPOCH": 16002, "BSTAR": 0.0001024646, "MEAN_MOTION_DOT": 1.72e-06, "MEAN_MOTION_DDOT": 0}, "tle": {"line1": "1 54234U 22150A   25346.25014590  .00000172  00000+0  10246-3 0  9999", "line2": "2 54234  98.7461 282.5645 0002238  39.0881 321.0456 14.19524122160022"}}, "geometry": {"type": "Point", "coordinates": [108.68055599955568, 32.69253800596192]}}, {"type": "Feature", "properties": {"norad_id": 54743, "name": "METEOSAT-12 (MTG-I1)", "group": "weather", "lat": -0.5222937833773776, "lon": -25.956901118826487, "alt_km": 35784.85198778908, "timestamp": "2025-12-12T16:50:32.790597+00:00", "meta": {"OBJECT_NAME": "METEOSAT-12 (MTG-I1)", "OBJECT_ID": "2022-170C", "EPOCH": "2025-12-12T04:55:00.365376", "MEAN_MOTION": 1.00268869, "ECCENTRICITY": 0.000175, "INCLINATION": 0.6863, "RA_OF_ASC_NODE": 23.509, "ARG_OF_PERICENTER": 236.9704, "MEAN_ANOMALY": 254.1783, "EPHEMERIS_TYPE": 0, "CLASSIFICATION_TYPE": "U", "NORAD_CAT_ID": 54743, "ELEMENT_SET_NO": 999, "REV_AT_EPOCH": 1110, "BSTAR": 0, "MEAN_MOTION_DOT": 2e-08, "MEAN_MOTION_DDOT": 0}, "tle": {"line1": "1 54743U 22170C   25346.20486534  .00000002  00000+0  00000+0 0  9997", "line2": "2 54743   0.6863  23.5090 0001750 236.9704 254.1783  1.00268869 11104"}}, "geometry": {"type": "Point", "coordinates": [-25.956901118826487, -0.5222937833773776]}}, {"type": "Feature", "properties": {"norad_id": 55973, "name": "TIANMU-1 03", "group": "weather", "lat": 55.11768540311852, "lon": 138.4430050278049, "alt_km": 435.18511402204695, "timestamp": "2025-12-12T16:50:32.790615+00:00", "meta": {"OBJECT_NAME": "TIANMU-1 03", "OBJECT_ID": "2023-039A", "EPOCH": "2025-12-12T08:48:30.623040", "MEAN_MOTION": 15.40906348, "ECCENTRICITY": 0.0004432, "INCLINATION": 97.5108, "RA_OF_ASC_NODE": 149.0082, "ARG_OF_PERICENTER": 61.7788, "MEAN_ANOMALY": 298.3905, "EPHEMERIS_TYPE": 0, "CLASSIFICATION_TYPE": "U", "NORAD_CAT_ID": 55973, "ELEMENT_SET_NO": 999, "REV_AT_EPOCH": 15200, "BSTAR": 0.00053132553, "MEAN_MOTION_DOT": 0.00021795, "MEAN_MOTION_DDOT": 0}, "tle": {"line1": "1 55973U 23039A   25346.36702110  .00021795  00000+0  53133-3 0  9997", "line2": "2 55973  97.5108 149.0082 0004432  61.7788 298.3905 15.40906348152009"}}, "geometry": {"type": "Point", "coordinates": [138.4430050278049, 55.11768540311852]}}, {"type": "Feature", "properties": {"norad_id": 55974, "name": "TIANMU-1 04", "group": "weather", "lat": 9.919724010439138, "lon": -30.135753531016157, "alt_km": 445.5648964099437, "timestamp": "2025-12-12T16:50:32.790631+00:00", "meta": {"OBJECT_NAME": "TIANMU-1 04", "OBJECT_ID": "2023-039B", "EPOCH": "2025-12-12T08:19:01.953696", "MEAN_MOTION": 15.41241543, "ECCENTRICITY": 0.00050896, "INCLINATION": 97.5041, "RA_OF_ASC_NODE": 148.1784, "ARG_OF_PERICENTER": 56.7309, "MEAN_ANOMALY": 303.4424, "EPHEMERIS_TYPE": 0, "CLASSIFICATION_TYPE": "U", "NORAD_CAT_ID": 55974, "ELEMENT_SET_NO": 999, "REV_AT_EPOCH": 15200, "BSTAR": 0.00053498631, "MEAN_MOTION_DOT": 0.00022194, "MEAN_MOTION_DDOT": 0}, "tle": {"line1": "1 55974U 23039B   25346.34655039  .00022194  00000+0  53499-3 0  9992", "line2": "2 55974  97.5041 148.1784 0005089  56.7309 303.4424 15.41241543152001"}}, "geometry": {"type": "Point", "coordinates": [-30.135753531016157, 9.919724010439138]}}, {"type": "Feature", "properties": {"norad_id": 55975, "name": "TIANMU-1 05", "group": "weather", "lat": -21.736049972372488, "lon": -33.97881039919659, "alt_km": 450.63207293015057, "timestamp": "2025-12-12T16:50:32.790648+00:00", "meta": {"OBJECT_NAME": "TIANMU-1 05", "OBJECT_ID": "2023-039C", "EPOCH": "2025-12-12T08:10:36.416928", "MEAN_MOTION": 15.40862542, "ECCENTRICITY": 0.00043647, "INCLINATION": 97.5087, "RA_OF_ASC_NODE": 148.6646, "ARG_OF_PERICENTER": 78.9786, "MEAN_ANOMALY": 281.1951, "EPHEMERIS_TYPE": 0, "CLASSIFICATION_TYPE": "U", "NORAD_CAT_ID": 55975, "ELEMENT_SET_NO": 999, "REV_AT_EPOCH": 15198, "BSTAR": 0.00052456581, "MEAN_MOTION_DOT": 0.00021484, "MEAN_MOTION_DDOT": 0}, "tle": {"line1": "1 55975U 23039C   25346.34069927  .00021484  00000+0  52457-3 0  9992", "line2": "2 55975  97.5087 148.6646 0004364  78.9786 281.1951 15.40862542151984"}}, "geometry": {"type": "Point", "coordinates": [-33.97881039919659, -21.736049972372488]}}, {"type": "Feature", "properties": {"norad_id": 55976, "name": "TIANMU-1 06", "group": "weather", "lat": 21.878308111988094, "lon": -27.462762825779244, "alt_km": 441.84819184632397, "timestamp": "2025-12-12T16:50:32.790667+00:00", "meta": {"OBJECT_NAME": "TIANMU-1 06", "OBJECT_ID": "2023-039D", "EPOCH": "2025-12-12T08:22:10.989120", "MEAN_MOTION": 15.41294362, "ECCENTRICITY": 0.00046568, "INCLINATION": 97.5098, "RA_OF_ASC_NODE": 149.1377, "ARG_OF_PERICENTER": 74.0172, "MEAN_ANOMALY": 286.1587, "EPHEMERIS_TYPE": 0, "CLASSIFICATION_TYPE": "U", "NORAD_CAT_ID": 55976, "ELEMENT_SET_NO": 999, "REV_AT_EPOCH": 15200, "BSTAR": 0.00054281072, "MEAN_MOTION_DOT": 0.00022559, "MEAN_MOTION_DDOT": 0}, "tle": {"line1": "1 55976U 23039D   25346.34873830  .00022559  00000+0  54281-3 0  9990", "line2": "2 55976  97.5098 149.1377 0004656  74.0172 286.1587 15.41294362152008"}}, "geometry": {"type": "Point", "coordinates": [-27.462762825779244, 21.878308111988094]}}, {"type": "Feature", "properties": {"norad_id": 56232, "name": "FENGYUN 3G", "group": "weather", "lat": -38.844049376742554, "lon": 90.209707390262, "alt_km": 409.71852137748647, "timestamp": "2025-12-12T16:50:32.790684+00:00", "meta": {"OBJECT_NAME": "FENGYUN 3G", "OBJECT_ID": "2023-055A", "EPOCH": "2025-12-12T06:34:28.707168", "MEAN_MOTION": 15.5360363, "ECCENTRICITY": 0.00092661, "INCLINATION": 49.9933, "RA_OF_ASC_NODE": 229.8586, "ARG_OF_PERICENTER": 146.3193, "MEAN_ANOMALY": 213.8365, "EPHEMERIS_TYPE": 0, "CLASSIFICATION_TYPE": "U", "NORAD_CAT_ID": 56232, "ELEMENT_SET_NO": 999, "REV_AT_EPOCH": 15095, "BSTAR": 0.00067846894, "MEAN_MOTION_DOT": 0.00043969, "MEAN_MOTION_DDOT": 0}, "tle": {"line1": "1 56232U 23055A   25346.27394337  .00043969  00000+0  67847-3 0  9996", "line2": "2 56232  49.9933 229.8586 0009266 146.3193 213.8365 15.53603630150957"}}, "geometry": {"type": "Point", "coordinates": [90.209707390262, -38.844049376742554]}}, {"type": "Feature", "properties": {"norad_id": 57166, "name": "METEOR-M2 3", "group": "weather", "lat": 51.835588046521444, "lon": 29.089479642660116, "alt_km": 804.8803784671309, "timestamp": "2025-12-12T16:50:32.790700+00:00", "meta": {"OBJECT_NAME": "METEOR-M2 3", "OBJECT_ID": "2023-091A", "EPOCH": "2025-12-12T08:09:52.230240", "MEAN_MOTION": 14.24026017, "ECCENTRICITY": 0.00039285, "INCLINATION": 98.6379, "RA_OF_ASC_NODE": 39.8865, "ARG_OF_PERICENTER": 9.9816, "MEAN_ANOMALY": 350.1441, "EPHEMERIS_TYPE": 0, "CLASSIFICATION_TYPE": "U", "NORAD_CAT_ID": 57166, "ELEMENT_SET_NO": 999, "REV_AT_EPOCH": 12792, "BSTAR": 2.9407963e-05, "MEAN_MOTION_DOT": 2.4e-07, "MEAN_MOTION_DDOT": 0}, "tle": {"line1": "1 57166U 23091A   25346.34018785  .00000024  00000+0  29408-4 0  9998", "line2": "2 57166  98.6379  39.8865 0003928   9.9816 350.1441 14.24026017127929"}}, "geometry": {"type": "Point", "coordinates": [29.089479642660116, 51.835588046521444]}}, {"type": "Feature", "properties": {"norad_id": 57399, "name": "TIANMU-1 07", "group": "weather", "lat": -45.20371414547961, "lon": -150.8535139201483, "alt_km": 491.50635481830886, "timestamp": "2025-12-12T16:50:32.790720+00:00", "meta": {"OBJECT_NAME": "TIANMU-1 07", "OBJECT_ID": "2023-101A", "EPOCH": "2025-12-12T08:00:01.753632", "MEAN_MOTION": 15.28063179, "ECCENTRICITY": 0.00056214, "INCLINATION": 97.288, "RA_OF_ASC_NODE": 36.1918, "ARG_OF_PERICENTER": 82.7243, "MEAN_ANOMALY": 277.4636, "EPHEMERIS_TYPE": 0, "CLASSIFICATION_TYPE": "U", "NORAD_CAT_ID": 57399, "ELEMENT_SET_NO": 999, "REV_AT_EPOCH": 13309, "BSTAR": 0.00040040666, "MEAN_MOTION_DOT": 0.00010895, "MEAN_MOTION_DDOT": 0}, "tle": {"line1": "1 57399U 23101A   25346.33335363  .00010895  00000+0  40041-3 0  9993", "line2": "2 57399  97.2880  36.1918 0005621  82.7243 277.4636 15.28063179133090"}}, "geometry": {"type": "Point", "coordinates": [-150.8535139201483, -45.20371414547961]}}, {"type": "Feature", "properties": {"norad_id": 57400, "name": "TIANMU-1 08", "group": "weather", "lat": 46.65369597987898, "lon": 28.558893783408273, "alt_km": 473.4507267135077, "timestamp": "2025-12-12T16:50:32.790737+00:00", "meta": {"OBJECT_NAME": "TIANMU-1 08", "OBJECT_ID": "2023-101B", "EPOCH": "2025-12-12T07:12:25.525152", "MEAN_MOTION": 15.28045563, "ECCENTRICITY": 0.00075128, "INCLINATION": 97.2868, "RA_OF_ASC_NODE": 35.9577, "ARG_OF_PERICENTER": 85.1167, "MEAN_ANOMALY": 275.0931, "EPHEMERIS_TYPE": 0, "CLASSIFICATION_TYPE": "U", "NORAD_CAT_ID": 57400, "ELEMENT_SET_NO": 999, "REV_AT_EPOCH": 13308, "BSTAR": 0.00041675661, "MEAN_MOTION_DOT": 0.00011342, "MEAN_MOTION_DDOT": 0}, "tle": {"line1": "1 57400U 23101B   25346.30029543  .00011342  00000+0  41676-3 0  9996", "line2": "2 57400  97.2868  35.9577 0007512  85.1167 275.0931 15.28045563133088"}}, "geometry": {"type": "Point", "coordinates": [28.558893783408273, 46.65369597987898]}}]}